{
  "links" : {
    "next" : "https://api.nasa.gov/neo/rest/v1/feed?start_date=1999-01-23&end_date=1999-01-23&detailed=true&api_key=t0TVs3DtDT2H8Oy2Zy8m2eVrNsAVKAexjcZXUckd",
    "prev" : "https://api.nasa.gov/neo/rest/v1/feed?start_date=1999-01-21&end_date=1999-01-21&detailed=true&api_key=t0TVs3DtDT2H8Oy2Zy8m2eVrNsAVKAexjcZXUckd",
    "self" : "https://api.nasa.gov/neo/rest/v1/feed?start_date=1999-01-22&end_date=1999-01-22&detailed=true&api_key=t0TVs3DtDT2H8Oy2Zy8m2eVrNsAVKAexjcZXUckd"
  },
  "element_count" : 5,
  "near_earth_objects" : {
    "1999-01-22" : [ {
      "links" : {
        "self" : "https://api.nasa.gov/neo/rest/v1/neo/3338518?api_key=t0TVs3DtDT2H8Oy2Zy8m2eVrNsAVKAexjcZXUckd"
      },
      "neo_reference_id" : "3338518",
      "name" : "(2006 QA31)",
      "nasa_jpl_url" : "http://ssd.jpl.nasa.gov/sbdb.cgi?sstr=3338518",
      "absolute_magnitude_h" : 20.0,
      "estimated_diameter" : {
        "kilometers" : {
          "estimated_diameter_min" : 0.2658,
          "estimated_diameter_max" : 0.5943468684
        },
        "meters" : {
          "estimated_diameter_min" : 265.8,
          "estimated_diameter_max" : 594.3468684194
        },
        "miles" : {
          "estimated_diameter_min" : 0.1651604118,
          "estimated_diameter_max" : 0.369309908
        },
        "feet" : {
          "estimated_diameter_min" : 872.047272,
          "estimated_diameter_max" : 1949.9569797852
        }
      },
      "is_potentially_hazardous_asteroid" : false,
      "close_approach_data" : [ {
        "close_approach_date" : "1999-01-22",
        "epoch_date_close_approach" : 916992000000,
        "relative_velocity" : {
          "kilometers_per_second" : "14.9918499533",
          "kilometers_per_hour" : "53970.6598318242",
          "miles_per_hour" : "33535.2691605021"
        },
        "miss_distance" : {
          "astronomical" : "0.3189357746",
          "lunar" : "124.0660171509",
          "kilometers" : "47712116",
          "miles" : "29646934"
        },
        "orbiting_body" : "Earth"
      } ],
      "orbital_data" : {
        "orbit_id" : "36",
        "orbit_determination_date" : "2016-06-13 06:16:52",
        "orbit_uncertainty" : "0",
        "minimum_orbit_intersection" : ".204915",
        "jupiter_tisserand_invariant" : "5.179",
        "epoch_osculation" : "2457600.5",
        "eccentricity" : ".4576606351309081",
        "semi_major_axis" : "1.197799884752913",
        "inclination" : "11.85568014646075",
        "ascending_node_longitude" : "95.85923592915729",
        "orbital_period" : "478.8228059334859",
        "perihelion_distance" : ".6496140287371666",
        "perihelion_argument" : "358.57182355976",
        "aphelion_distance" : "1.74598574076866",
        "perihelion_time" : "2457412.042057124716",
        "mean_anomaly" : "141.6909524658826",
        "mean_motion" : ".7518438878410654",
        "equinox" : "J2000"
      }
    }, {
      "links" : {
        "self" : "https://api.nasa.gov/neo/rest/v1/neo/3719205?api_key=t0TVs3DtDT2H8Oy2Zy8m2eVrNsAVKAexjcZXUckd"
      },
      "neo_reference_id" : "3719205",
      "name" : "(2015 JA2)",
      "nasa_jpl_url" : "http://ssd.jpl.nasa.gov/sbdb.cgi?sstr=3719205",
      "absolute_magnitude_h" : 21.0,
      "estimated_diameter" : {
        "kilometers" : {
          "estimated_diameter_min" : 0.1677084622,
          "estimated_diameter_max" : 0.3750075218
        },
        "meters" : {
          "estimated_diameter_min" : 167.7084621628,
          "estimated_diameter_max" : 375.0075217981
        },
        "miles" : {
          "estimated_diameter_min" : 0.1042091748,
          "estimated_diameter_max" : 0.2330187988
        },
        "feet" : {
          "estimated_diameter_min" : 550.2246310023,
          "estimated_diameter_max" : 1230.3396778159
        }
      },
      "is_potentially_hazardous_asteroid" : true,
      "close_approach_data" : [ {
        "close_approach_date" : "1999-01-22",
        "epoch_date_close_approach" : 916992000000,
        "relative_velocity" : {
          "kilometers_per_second" : "15.7787512535",
          "kilometers_per_hour" : "56803.5045124877",
          "miles_per_hour" : "35295.4886788844"
        },
        "miss_distance" : {
          "astronomical" : "0.1046722584",
          "lunar" : "40.7175102234",
          "kilometers" : "15658747",
          "miles" : "9729895"
        },
        "orbiting_body" : "Earth"
      } ],
      "orbital_data" : {
        "orbit_id" : "25",
        "orbit_determination_date" : "2017-04-12 06:13:48",
        "orbit_uncertainty" : "2",
        "minimum_orbit_intersection" : ".0437746",
        "jupiter_tisserand_invariant" : "5.832",
        "epoch_osculation" : "2458000.5",
        "eccentricity" : ".3493846187827683",
        "semi_major_axis" : "1.034382781921124",
        "inclination" : "16.41383200683848",
        "ascending_node_longitude" : "126.6425216884908",
        "orbital_period" : "384.2557287935064",
        "perihelion_distance" : ".6729853479841524",
        "perihelion_argument" : "246.2456622860245",
        "aphelion_distance" : "1.395780215858095",
        "perihelion_time" : "2458046.481995895678",
        "mean_anomaly" : "316.920568043529",
        "mean_motion" : ".9368760776328175",
        "equinox" : "J2000"
      }
    }, {
      "links" : {
        "self" : "https://api.nasa.gov/neo/rest/v1/neo/3752904?api_key=t0TVs3DtDT2H8Oy2Zy8m2eVrNsAVKAexjcZXUckd"
      },
      "neo_reference_id" : "3752904",
      "name" : "(2016 JP15)",
      "nasa_jpl_url" : "http://ssd.jpl.nasa.gov/sbdb.cgi?sstr=3752904",
      "absolute_magnitude_h" : 21.2,
      "estimated_diameter" : {
        "kilometers" : {
          "estimated_diameter_min" : 0.1529519353,
          "estimated_diameter_max" : 0.3420109247
        },
        "meters" : {
          "estimated_diameter_min" : 152.9519353442,
          "estimated_diameter_max" : 342.0109247198
        },
        "miles" : {
          "estimated_diameter_min" : 0.095039897,
          "estimated_diameter_max" : 0.2125156703
        },
        "feet" : {
          "estimated_diameter_min" : 501.8108275547,
          "estimated_diameter_max" : 1122.0831222578
        }
      },
      "is_potentially_hazardous_asteroid" : false,
      "close_approach_data" : [ {
        "close_approach_date" : "1999-01-22",
        "epoch_date_close_approach" : 916992000000,
        "relative_velocity" : {
          "kilometers_per_second" : "16.9411322456",
          "kilometers_per_hour" : "60988.0760842626",
          "miles_per_hour" : "37895.6187202464"
        },
        "miss_distance" : {
          "astronomical" : "0.4416513293",
          "lunar" : "171.8023681641",
          "kilometers" : "66070096",
          "miles" : "41054056"
        },
        "orbiting_body" : "Earth"
      } ],
      "orbital_data" : {
        "orbit_id" : "12",
        "orbit_determination_date" : "2017-04-06 08:26:05",
        "orbit_uncertainty" : "4",
        "minimum_orbit_intersection" : ".12568",
        "jupiter_tisserand_invariant" : "6.474",
        "epoch_osculation" : "2458000.5",
        "eccentricity" : ".5072404476623983",
        "semi_major_axis" : ".8937186192929213",
        "inclination" : "24.07666206815023",
        "ascending_node_longitude" : "61.29772795741719",
        "orbital_period" : "308.6026390983361",
        "perihelion_distance" : ".4403883867585594",
        "perihelion_argument" : "333.9464213574865",
        "aphelion_distance" : "1.347048851827283",
        "perihelion_time" : "2457957.557621563172",
        "mean_anomaly" : "50.09437470277813",
        "mean_motion" : "1.166548675837105",
        "equinox" : "J2000"
      }
    } ]
  }
}